{
  "type": "FeatureCollection",
  "features": [
    {
      "type": "Feature",
      "properties": {
        "norad_id": 36036,
        "name": "SMOS",
        "group": "resource",
        "lat": 34.93231816230891,
        "lon": 158.02913091527984,
        "alt_km": 756.2406968091818,
        "timestamp": "2025-12-04T19:33:59.288150+00:00",
        "meta_object_name": "SMOS",
        "meta_object_id": "2009-059A",
        "meta_epoch": "2025-12-04T02:43:26.424192",
        "meta_mean_motion": 14.3979047,
        "meta_eccentricity": 0.00010223,
        "meta_inclination": 98.4384,
        "meta_ra_of_asc_node": 163.2893,
        "meta_arg_of_pericenter": 71.8401,
        "meta_mean_anomaly": 288.2899,
        "meta_ephemeris_type": 0,
        "meta_classification_type": "U",
        "meta_norad_cat_id": 36036,
        "meta_element_set_no": 999,
        "meta_rev_at_epoch": 84538,
        "meta_bstar": 0.00025734118,
        "meta_mean_motion_dot": 7.64e-06,
        "meta_mean_motion_ddot": 0,
        "tle_line1": "1 36036U 09059A   25338.11350028  .00000764  00000+0  25734-3 0  9992",
        "tle_line2": "2 36036  98.4384 163.2893 0001022  71.8401 288.2899 14.39790470845382"
      },
      "geometry": {
        "type": "Point",
        "coordinates": [
          158.02913091527984,
          34.93231816230891
        ]
      }
    },
    {
      "type": "Feature",
      "properties": {
        "norad_id": 36110,
        "name": "YAOGAN-7",
        "group": "resource",
        "lat": -37.90782004815539,
        "lon": 34.28874463320937,
        "alt_km": 642.9151000918073,
        "timestamp": "2025-12-04T19:33:59.288160+00:00",
        "meta_object_name": "YAOGAN-7",
        "meta_object_id": "2009-069A",
        "meta_epoch": "2025-12-04T05:34:43.330080",
        "meta_mean_motion": 14.77713153,
        "meta_eccentricity": 0.00237508,
        "meta_inclination": 98.0303,
        "meta_ra_of_asc_node": 220.0196,
        "meta_arg_of_pericenter": 310.0549,
        "meta_mean_anomaly": 49.8578,
        "meta_ephemeris_type": 0,
        "meta_classification_type": "U",
        "meta_norad_cat_id": 36110,
        "meta_element_set_no": 999,
        "meta_rev_at_epoch": 86083,
        "meta_bstar": 0.00020574845,
        "meta_mean_motion_dot": 1.428e-05,
        "meta_mean_motion_ddot": 0,
        "tle_line1": "1 36110U 09069A   25338.23244595  .00001428  00000+0  20575-3 0  9996",
        "tle_line2": "2 36110  98.0303 220.0196 0023750 310.0549  49.8578 14.77713153860830"
      },
      "geometry": {
        "type": "Point",
        "coordinates": [
          34.28874463320937,
          -37.90782004815539
        ]
      }
    },
    {
      "type": "Feature",
      "properties": {
        "norad_id": 36605,
        "name": "TANDEM-X",
        "group": "resource",
        "lat": 4.338127635320099,
        "lon": -16.257337117528607,
        "alt_km": 510.76103735372635,
        "timestamp": "2025-12-04T19:33:59.288170+00:00",
        "meta_object_name": "TANDEM-X",
        "meta_object_id": "2010-030A",
        "meta_epoch": "2025-12-03T15:05:32.620128",
        "meta_mean_motion": 15.19160106,
        "meta_eccentricity": 0.00017772,
        "meta_inclination": 97.4443,
        "meta_ra_of_asc_node": 343.1419,
        "meta_arg_of_pericenter": 93.6994,
        "meta_mean_anomaly": 266.4444,
        "meta_ephemeris_type": 0,
        "meta_classification_type": "U",
        "meta_norad_cat_id": 36605,
        "meta_element_set_no": 999,
        "meta_rev_at_epoch": 85695,
        "meta_bstar": 0.00010004139,
        "meta_mean_motion_dot": 2.035e-05,
        "meta_mean_motion_ddot": 0,
        "tle_line1": "1 36605U 10030A   25337.62884977  .00002035  00000+0  10004-3 0  9992",
        "tle_line2": "2 36605  97.4443 343.1419 0001777  93.6994 266.4444 15.19160106856953"
      },
      "geometry": {
        "type": "Point",
        "coordinates": [
          -16.257337117528607,
          4.338127635320099
        ]
      }
    },
    {
      "type": "Feature",
      "properties": {
        "norad_id": 36795,
        "name": "CARTOSAT-2B",
        "group": "resource",
        "lat": 62.55591210994715,
        "lon": -136.62030344526227,
        "alt_km": 618.4186224547084,
        "timestamp": "2025-12-04T19:33:59.288179+00:00",
        "meta_object_name": "CARTOSAT-2B",
        "meta_object_id": "2010-035A",
        "meta_epoch": "2025-12-04T07:40:30.967968",
        "meta_mean_motion": 14.7876927,
        "meta_eccentricity": 0.00128862,
        "meta_inclination": 97.7865,
        "meta_ra_of_asc_node": 27.6233,
        "meta_arg_of_pericenter": 102.2984,
        "meta_mean_anomaly": 257.9671,
        "meta_ephemeris_type": 0,
        "meta_classification_type": "U",
        "meta_norad_cat_id": 36795,
        "meta_element_set_no": 999,
        "meta_rev_at_epoch": 83105,
        "meta_bstar": 0.00021446399,
        "meta_mean_motion_dot": 1.528e-05,
        "meta_mean_motion_ddot": 0,
        "tle_line1": "1 36795U 10035A   25338.31980287  .00001528  00000+0  21446-3 0  9993",
        "tle_line2": "2 36795  97.7865  27.6233 0012886 102.2984 257.9671 14.78769270831053"
      },
      "geometry": {
        "type": "Point",
        "coordinates": [
          -136.62030344526227,
          62.55591210994715
        ]
      }
    },
    {
      "type": "Feature",
      "properties": {
        "norad_id": 36834,
        "name": "YAOGAN-10",
        "group": "resource",
        "lat": 30.306623349011,
        "lon": -5.968916869201663,
        "alt_km": 612.7522038428569,
        "timestamp": "2025-12-04T19:33:59.288189+00:00",
        "meta_object_name": "YAOGAN-10",
        "meta_object_id": "2010-038A",
        "meta_epoch": "2025-12-03T19:57:32.552064",
        "meta_mean_motion": 14.84554289,
        "meta_eccentricity": 0.00015101,
        "meta_inclination": 97.915,
        "meta_ra_of_asc_node": 357.7191,
        "meta_arg_of_pericenter": 84.468,
        "meta_mean_anomaly": 92.504,
        "meta_ephemeris_type": 0,
        "meta_classification_type": "U",
        "meta_norad_cat_id": 36834,
        "meta_element_set_no": 999,
        "meta_rev_at_epoch": 82821,
        "meta_bstar": 0.00024459282,
        "meta_mean_motion_dot": 2.01e-05,
        "meta_mean_motion_ddot": 0,
        "tle_line1": "1 36834U 10038A   25337.83162676  .00002010  00000+0  24459-3 0  9994",
        "tle_line2": "2 36834  97.9150 357.7191 0001510  84.4680  92.5040 14.84554289828218"
      },
      "geometry": {
        "type": "Point",
        "coordinates": [
          -5.968916869201663,
          30.306623349011
        ]
      }
    },
    {
      "type": "Feature",
      "properties": {
        "norad_id": 37216,
        "name": "COSMO-SKYMED 4",
        "group": "resource",
        "lat": 22.623592473925164,
        "lon": 156.94848937731422,
        "alt_km": 621.704846263352,
        "timestamp": "2025-12-04T19:33:59.288199+00:00",
        "meta_object_name": "COSMO-SKYMED 4",
        "meta_object_id": "2010-060A",
        "meta_epoch": "2025-12-04T08:07:18.876288",
        "meta_mean_motion": 14.82152753,
        "meta_eccentricity": 0.00013946,
        "meta_inclination": 97.8808,
        "meta_ra_of_asc_node": 159.7882,
        "meta_arg_of_pericenter": 82.9306,
        "meta_mean_anomaly": 277.2066,
        "meta_ephemeris_type": 0,
        "meta_classification_type": "U",
        "meta_norad_cat_id": 37216,
        "meta_element_set_no": 999,
        "meta_rev_at_epoch": 81570,
        "meta_bstar": 0.00014797282,
        "meta_mean_motion_dot": 1.126e-05,
        "meta_mean_motion_ddot": 0,
        "tle_line1": "1 37216U 10060A   25338.33841292  .00001126  00000+0  14797-3 0  9999",
        "tle_line2": "2 37216  97.8808 159.7882 0001394  82.9306 277.2066 14.82152753815705"
      },
      "geometry": {
        "type": "Point",
        "coordinates": [
          156.94848937731422,
          22.623592473925164
        ]
      }
    },
    {
      "type": "Feature",
      "properties": {
        "norad_id": 37387,
        "name": "RESOURCESAT-2",
        "group": "resource",
        "lat": -80.79562592334642,
        "lon": 115.09561371739657,
        "alt_km": 831.5137528818477,
        "timestamp": "2025-12-04T19:33:59.288208+00:00",
        "meta_object_name": "RESOURCESAT-2",
        "meta_object_id": "2011-015A",
        "meta_epoch": "2025-12-04T06:27:46.984320",
        "meta_mean_motion": 14.21592148,
        "meta_eccentricity": 0.00067553,
        "meta_inclination": 98.7888,
        "meta_ra_of_asc_node": 41.8588,
        "meta_arg_of_pericenter": 64.4192,
        "meta_mean_anomaly": 295.7683,
        "meta_ephemeris_type": 0,
        "meta_classification_type": "U",
        "meta_norad_cat_id": 37387,
        "meta_element_set_no": 999,
        "meta_rev_at_epoch": 75848,
        "meta_bstar": 0.00018150577,
        "meta_mean_motion_dot": 3.54e-06,
        "meta_mean_motion_ddot": 0,
        "tle_line1": "1 37387U 11015A   25338.26929380  .00000354  00000+0  18151-3 0  9996",
        "tle_line2": "2 37387  98.7888  41.8588 0006755  64.4192 295.7683 14.21592148758480"
      },
      "geometry": {
        "type": "Point",
        "coordinates": [
          115.09561371739657,
          -80.79562592334642
        ]
      }
    }
  ]
}